[{"OBJECT_NAME":"JILIN-1 GAOFEN 3A","OBJECT_ID":"2019-032C","EPOCH":"2026-03-09T17:53:24.364896","MEAN_MOTION":15.3027131,"ECCENTRICITY":0.00026181,"INCLINATION":44.9746,"RA_OF_ASC_NODE":183.2861,"ARG_OF_PERICENTER":111.29,"MEAN_ANOMALY":248.8263,"EPHEMERIS_TYPE":0,"CLASSIFICATION_TYPE":"U","NORAD_CAT_ID":44312,"ELEMENT_SET_NO":999,"REV_AT_EPOCH":37259,"BSTAR":0.00055381133,"MEAN_MOTION_DOT":0.00016264,"MEAN_MOTION_DDOT":0},{"OBJECT_NAME":"STARLINK-33657","OBJECT_ID":"2025-063H","EPOCH":"2026-03-09T22:04:35.307840","MEAN_MOTION":15.30209803,"ECCENTRICITY":0.0001778,"INCLINATION":53.16,"RA_OF_ASC_NODE":51.4694,"ARG_OF_PERICENTER":64.4435,"MEAN_ANOMALY":295.6749,"EPHEMERIS_TYPE":0,"CLASSIFICATION_TYPE":"U","NORAD_CAT_ID":63370,"ELEMENT_SET_NO":999,"REV_AT_EPOCH":5474,"BSTAR":0.00090751712,"MEAN_MOTION_DOT":0.00026624,"MEAN_MOTION_DDOT":0}]
